NORAD_CAT_ID,OBJECT_NAME,OBJECT_TYPE,EPOCH,MEAN_MOTION,ECCENTRICITY,INCLINATION,RA_OF_ASC_NODE,ARG_OF_PERICENTER,MEAN_ANOMALY,BSTAR,MEAN_MOTION_DOT,MEAN_MOTION_DDOT,TLE_LINE0,TLE_LINE1,TLE_LINE2,SEMIMAJOR_AXIS,PERIOD,APOGEE,PERIGEE,DECAYED
55780.0,STARLINK-5819,PAYLOAD,2024-07-06 19:28:27,14.98312846,0.0002807,70.0015,324.5271,270.147,89.9367,0.00033104,3.857e-05,0.0,0 STARLINK-5819,1 55780U 23028AR  24188.81143208  .00003857  00000-0  33104-3 0  9997,2 55780  70.0015 324.5271 0002807 270.1470  89.9367 14.98312846 75035,6950.246,96.108,574.062,570.16,0.0
55780.0,STARLINK-5819,PAYLOAD,2024-07-07 13:05:55,14.98332107,0.0003004,70.0016,322.6761,269.5541,90.5274,2.3567e-05,1.88e-06,0.0,0 STARLINK-5819,1 55780U 23028AR  24189.54578530  .00000188  00000-0  23567-4 0  9995,2 55780  70.0016 322.6761 0003004 269.5541  90.5274 14.98332107 75149,6950.186,96.107,574.139,569.964,0.0
55780.0,STARLINK-5819,PAYLOAD,2024-07-08 13:07:57,14.9832712,0.0003,70.0013,320.1511,267.7437,92.3379,2.1509e-05,1.64e-06,0.0,0 STARLINK-5819,1 55780U 23028AR  24190.54718775  .00000164  00000-0  21509-4 0  9992,2 55780  70.0013 320.1511 0003000 267.7437  92.3379 14.98327120 75293,6950.202,96.107,574.152,569.982,0.0
55780.0,STARLINK-5819,PAYLOAD,2024-07-08 14:44:04,14.98329047,0.0002986,70.0013,319.983,266.1771,93.9046,4.1491e-05,4.02e-06,0.0,0 STARLINK-5819,1 55780U 23028AR  24190.61394595  .00000402  00000-0  41491-4 0  9997,2 55780  70.0013 319.9830 0002986 266.1771  93.9046 14.98329047 75309,6950.196,96.107,574.136,569.986,0.0
55780.0,STARLINK-5819,PAYLOAD,2024-07-08 17:56:20,14.98331179,0.0002965,70.0013,319.6462,267.1464,92.9356,6.427e-05,6.74e-06,0.0,0 STARLINK-5819,1 55780U 23028AR  24190.74746410  .00000674  00000-0  64270-4 0  9999,2 55780  70.0013 319.6462 0002965 267.1464  92.9356 14.98331179 75328,6950.189,96.107,574.115,569.994,0.0
55780.0,STARLINK-5819,PAYLOAD,2024-07-09 13:09:57,14.98331505,0.0002984,70.0012,317.6267,267.3678,92.714,4.5701e-05,4.52e-06,0.0,0 STARLINK-5819,1 55780U 23028AR  24191.54858415  .00000452  00000-0  45701-4 0  9999,2 55780  70.0012 317.6267 0002984 267.3678  92.7140 14.98331505 75443,6950.188,96.107,574.127,569.979,0.0
55780.0,STARLINK-5819,PAYLOAD,2024-07-09 14:46:05,14.98331833,0.0003059,70.0011,317.4582,268.389,91.6919,4.0564e-05,3.91e-06,0.0,0 STARLINK-5819,1 55780U 23028AR  24191.61534397  .00000391  00000-0  40564-4 0  9991,2 55780  70.0011 317.4582 0003059 268.3890  91.6919 14.98331833 75458,6950.187,96.107,574.178,569.926,0.0
55780.0,STARLINK-5819,PAYLOAD,2024-07-09 17:58:21,14.98334284,0.0003008,70.0012,317.1217,267.7606,92.3209,5.8831e-05,6.09e-06,0.0,0 STARLINK-5819,1 55780U 23028AR  24191.74886183  .00000609  00000-0  58831-4 0  9996,2 55780  70.0012 317.1217 0003008 267.7606  92.3209 14.98334284 75478,6950.18,96.107,574.135,569.954,0.0
55780.0,STARLINK-5819,PAYLOAD,2024-07-10 11:35:51,14.98324208,0.0003058,70.0013,315.2701,270.7028,89.378,7.5075e-06,-3e-08,0.0,0 STARLINK-5819,1 55780U 23028AR  24192.48323024 -.00000003  00000-0  75075-5 0  9997,2 55780  70.0013 315.2701 0003058 270.7028  89.3780 14.98324208 75580,6950.211,96.107,574.201,569.95,0.0
55780.0,STARLINK-5819,PAYLOAD,2024-07-10 14:48:07,14.98325778,0.0002954,70.0006,314.9316,265.0647,95.0175,4.4852e-05,4.42e-06,0.0,0 STARLINK-5819,1 55780U 23028AR  24192.61674829  .00000442  00000-0  44852-4 0  9998,2 55780  70.0006 314.9316 0002954 265.0647  95.0175 14.98325778 75606,6950.206,96.107,574.124,570.018,0.0
55780.0,STARLINK-5819,PAYLOAD,2024-07-11 11:37:51,14.98321578,0.000304,70.0011,312.7435,268.4321,91.649,0.00028532,3.312e-05,0.0,0 STARLINK-5819,1 55780U 23028AR  24193.48462553  .00003312  00000-0  28532-3 0  9998,2 55780  70.0011 312.7435 0003040 268.4321  91.6490 14.98321578 75733,6950.219,96.108,574.197,569.971,0.0
55780.0,STARLINK-5819,PAYLOAD,2024-07-11 14:50:07,14.98334812,0.0003216,70.0009,312.4081,269.1603,90.9188,7.4824e-05,8e-06,0.0,0 STARLINK-5819,1 55780U 23028AR  24193.61814138  .00000800  00000-0  74824-4 0  9998,2 55780  70.0009 312.4081 0003216 269.1603  90.9188 14.98334812 75753,6950.178,96.107,574.278,569.808,0.0
55780.0,STARLINK-5819,PAYLOAD,2024-07-11 18:02:23,14.98340983,0.0003144,70.0011,312.0722,269.238,90.8419,0.00012296,1.375e-05,0.0,0 STARLINK-5819,1 55780U 23028AR  24193.75165553  .00001375  00000-0  12296-3 0  9995,2 55780  70.0011 312.0722 0003144 269.2380  90.8419 14.98340983 75771,6950.159,96.106,574.209,569.839,0.0
55780.0,STARLINK-5819,PAYLOAD,2024-07-12 11:39:52,14.98327472,0.000346,70.0006,310.219,277.8902,82.1864,6.8243e-05,7.21e-06,0.0,0 STARLINK-5819,1 55780U 23028AR  24194.48602528  .00000721  00000-0  68243-4 0  9992,2 55780  70.0006 310.2190 0003460 277.8902  82.1864 14.98327472 75888,6950.201,96.107,574.47,569.661,0.0
55780.0,STARLINK-5819,PAYLOAD,2024-07-12 14:52:08,14.98330468,0.000334,70.0007,309.8834,271.2821,88.7955,6.7362e-05,7.11e-06,0.0,0 STARLINK-5819,1 55780U 23028AR  24194.61954299  .00000711  00000-0  67362-4 0  9992,2 55780  70.0007 309.8834 0003340 271.2821  88.7955 14.98330468 75908,6950.191,96.107,574.378,569.735,0.0
55780.0,STARLINK-5819,PAYLOAD,2024-07-12 18:04:25,14.98311916,0.0002744,70.0018,309.5488,262.9,97.1847,0.00034738,4.052e-05,0.0,0 STARLINK-5819,1 55780U 23028AR  24194.75306996  .00004052  00000-0  34738-3 0  9994,2 55780  70.0018 309.5488 0002744 262.9000  97.1847 14.98311916 75928,6950.249,96.108,574.021,570.207,0.0
55780.0,STARLINK-5819,PAYLOAD,2024-07-13 11:41:53,14.98333147,0.0003318,70.0008,307.6956,271.706,88.3719,-2.8418e-05,-4.32e-06,0.0,0 STARLINK-5819,1 55780U 23028AR  24195.48742306 -.00000432  00000-0 -28418-4 0  9993,2 55780  70.0008 307.6956 0003318 271.7060  88.3719 14.98333147 76031,6950.183,96.107,574.354,569.742,0.0
55780.0,STARLINK-5819,PAYLOAD,2024-07-13 13:18:01,14.98333535,0.0003049,70.001,307.5274,261.9888,98.0925,-7.1992e-06,-1.79e-06,0.0,0 STARLINK-5819,1 55780U 23028AR  24195.55418169 -.00000179  00000-0 -71992-5 0  9992,2 55780  70.0010 307.5274 0003049 261.9888  98.0925 14.98333535 76045,6950.182,96.107,574.166,569.928,0.0
55780.0,STARLINK-5819,PAYLOAD,2024-07-13 18:06:25,14.98338503,0.0003285,70.0009,307.0224,270.8683,89.2099,3.4265e-05,3.16e-06,0.0,0 STARLINK-5819,1 55780U 23028AR  24195.75445711  .00000316  00000-0  34265-4 0  9999,2 55780  70.0009 307.0224 0003285 270.8683  89.2099 14.98338503 76074,6950.167,96.106,574.315,569.748,0.0
55780.0,STARLINK-5819,PAYLOAD,2024-07-14 13:20:02,14.98331109,0.0003096,70.0013,305.0033,269.0415,91.0389,5.873e-05,6.08e-06,0.0,0 STARLINK-5819,1 55780U 23028AR  24196.55558074  .00000608  00000-0  58730-4 0  9992,2 55780  70.0013 305.0033 0003096 269.0415  91.0389 14.98331109 76199,6950.189,96.107,574.206,569.903,0.0
55780.0,STARLINK-5819,PAYLOAD,2024-07-14 18:08:26,14.98334297,0.0003146,70.0015,304.4978,271.6678,88.4121,0.00013613,1.532e-05,0.0,0 STARLINK-5819,1 55780U 23028AR  24196.75585683  .00001532  00000-0  13613-3 0  9997,2 55780  70.0015 304.4978 0003146 271.6678  88.4121 14.98334297 76227,6950.18,96.107,574.231,569.858,0.0
55780.0,STARLINK-5819,PAYLOAD,2024-07-15 00:32:58,14.98348259,0.0003076,70.0012,303.8247,272.9033,87.1774,-0.00020176,-2.501e-05,0.0,0 STARLINK-5819,1 55780U 23028AR  24197.02289388 -.00002501  00000-0 -20176-3 0  9992,2 55780  70.0012 303.8247 0003076 272.9033  87.1774 14.98348259 76264,6950.136,96.106,574.139,569.864,0.0
55780.0,STARLINK-5819,PAYLOAD,2024-07-15 13:22:03,14.983308,0.000312,70.0009,302.4768,265.1634,94.9169,5.1405e-05,5.2e-06,0.0,0 STARLINK-5819,1 55780U 23028AR  24197.55698019  .00000520  00000-0  51405-4 0  9992,2 55780  70.0009 302.4768 0003120 265.1634  94.9169 14.98330800 76340,6950.19,96.107,574.224,569.887,0.0
55780.0,STARLINK-5819,PAYLOAD,2024-07-15 16:34:19,14.9833194,0.0003134,70.0013,302.1404,266.1196,93.9605,5.3908e-05,5.5e-06,0.0,0 STARLINK-5819,1 55780U 23028AR  24197.69049936  .00000550  00000-0  53908-4 0  9998,2 55780  70.0013 302.1404 0003134 266.1196  93.9605 14.98331940 76360,6950.187,96.107,574.23,569.874,0.0
55780.0,STARLINK-5819,PAYLOAD,2024-07-16 13:24:03,14.98331161,0.0003309,70.0004,299.952,267.8666,92.2114,4.0867e-05,3.95e-06,0.0,0 STARLINK-5819,1 55780U 23028AR  24198.55837876  .00000395  00000-0  40867-4 0  9999,2 55780  70.0004 299.9520 0003309 267.8666  92.2114 14.98331161 76492,6950.189,96.107,574.354,569.754,0.0
55780.0,STARLINK-5819,PAYLOAD,2024-07-16 16:36:19,14.98338237,0.0003168,70.0006,299.6154,268.3554,91.7242,9.9408e-05,1.094e-05,0.0,0 STARLINK-5819,1 55780U 23028AR  24198.69189229  .00001094  00000-0  99408-4 0  9998,2 55780  70.0006 299.6154 0003168 268.3554  91.7242 14.98338237 76519,6950.167,96.106,574.234,569.831,0.0
55780.0,STARLINK-5819,PAYLOAD,2024-07-17 13:26:05,14.98325876,0.0003199,70.0008,297.4295,267.6741,92.4052,-1.0884e-05,-2.23e-06,0.0,0 STARLINK-5819,1 55780U 23028AR  24199.55978592 -.00000223  00000-0 -10884-4 0  9999,2 55780  70.0008 297.4295 0003199 267.6741  92.4052 14.98325876 76643,6950.206,96.107,574.294,569.847,0.0
55780.0,STARLINK-5819,PAYLOAD,2024-07-17 16:38:21,14.98325138,0.0002851,70.0018,297.092,265.3335,94.7499,2.6267e-05,2.2e-06,0.0,0 STARLINK-5819,1 55780U 23028AR  24199.69330611  .00000220  00000-0  26267-4 0  9995,2 55780  70.0018 297.0920 0002851 265.3335  94.7499 14.98325138 76666,6950.208,96.107,574.054,570.091,0.0
55780.0,STARLINK-5819,PAYLOAD,2024-07-18 13:28:06,14.98332394,0.0003238,70.0003,294.9029,271.0603,89.0185,2.5496e-05,2.11e-06,0.0,0 STARLINK-5819,1 55780U 23028AR  24200.56118317  .00000211  00000-0  25496-4 0  9994,2 55780  70.0003 294.9029 0003238 271.0603  89.0185 14.98332394 76793,6950.185,96.107,574.301,569.8,0.0
55780.0,STARLINK-5819,PAYLOAD,2024-07-18 16:40:21,14.98337937,0.0003039,70.0008,294.5665,270.1483,89.9328,9.138e-05,9.98e-06,0.0,0 STARLINK-5819,1 55780U 23028AR  24200.69469808  .00000998  00000-0  91380-4 0  9999,2 55780  70.0008 294.5665 0003039 270.1483  89.9328 14.98337937 76814,6950.168,96.106,574.146,569.921,0.0
